{"RECORDS":[{"CCSDS_OMM_VERS":49099.03,"CREATION_DATE":"2084-10-27T17:43:09.803Z","ORIGINATOR":"Grimes, Beer and Torp","OBJECT_NAME":"Xgd!q<IF\\^","OBJECT_ID":";oq+j-AI+]","CENTER_NAME":"`l,\"4T#Rw&","REF_FRAME":7,"REF_FRAME_EPOCH":"2046-09-13T18:23:09.152Z","TIME_SYSTEM":6,"MEAN_ELEMENT_THEORY":1,"COMMENT":"'&+zdF8uFa","EPOCH":"2086-02-18T06:48:37.120Z","SEMI_MAJOR_AXIS":86037.92,"MEAN_MOTION":25355.66,"ECCENTRICITY":71940.09,"INCLINATION":24292.19,"RA_OF_ASC_NODE":9209.58,"ARG_OF_PERICENTER":79536.84,"MEAN_ANOMALY":89849.93,"GM":11152.48,"MASS":3571.65,"SOLAR_RAD_AREA":50708.33,"SOLAR_RAD_COEFF":73551.72,"DRAG_AREA":85013.02,"DRAG_COEFF":40051.14,"EPHEMERIS_TYPE":2,"CLASSIFICATION_TYPE":"%HWzJa3OEB","NORAD_CAT_ID":944936259,"ELEMENT_SET_NO":3339489229,"REV_AT_EPOCH":49769.41,"BSTAR":41638.87,"MEAN_MOTION_DOT":54511.49,"MEAN_MOTION_DDOT":20244.34,"COV_REF_FRAME":0,"CX_X":66709.07,"CY_X":70971.22,"CY_Y":61253.37,"CZ_X":96422.74,"CZ_Y":75982.36,"CZ_Z":31923.25,"CX_DOT_X":62809.64,"CX_DOT_Y":8342.27,"CX_DOT_Z":17360.54,"CX_DOT_X_DOT":88441.55,"CY_DOT_X":69901.37,"CY_DOT_Y":17802.3,"CY_DOT_Z":44770.89,"CY_DOT_X_DOT":17392.99,"CY_DOT_Y_DOT":76160.85,"CZ_DOT_X":35376.23,"CZ_DOT_Y":55033.79,"CZ_DOT_Z":7312.77,"CZ_DOT_X_DOT":22469.83,"CZ_DOT_Y_DOT":96927.73,"CZ_DOT_Z_DOT":43726.44,"USER_DEFINED_BIP_0044_TYPE":61923161,"USER_DEFINED_OBJECT_DESIGNATOR":"3rPr^\\zsti","USER_DEFINED_EARTH_MODEL":"q46ZcpNeVs","USER_DEFINED_EPOCH_TIMESTAMP":15485.13,"USER_DEFINED_MICROSECONDS":26131.77},{"CCSDS_OMM_VERS":9103.64,"CREATION_DATE":"2097-05-07T00:46:10.060Z","ORIGINATOR":"Steuber, Prohaska and Schmidt","OBJECT_NAME":"n3KbFA6NvP","OBJECT_ID":"dVds]A}#TP","CENTER_NAME":"sMDz]{5*X2","REF_FRAME":9,"REF_FRAME_EPOCH":"2071-06-30T08:22:55.029Z","TIME_SYSTEM":5,"MEAN_ELEMENT_THEORY":0,"COMMENT":"+\\Y}<9Fuv3","EPOCH":"2066-08-05T10:41:25.386Z","SEMI_MAJOR_AXIS":56906.69,"MEAN_MOTION":61592.03,"ECCENTRICITY":27640.86,"INCLINATION":27394.08,"RA_OF_ASC_NODE":12120.83,"ARG_OF_PERICENTER":75562.42,"MEAN_ANOMALY":64693.45,"GM":9726.44,"MASS":98930.37,"SOLAR_RAD_AREA":894.04,"SOLAR_RAD_COEFF":61190.01,"DRAG_AREA":39443.38,"DRAG_COEFF":94141.87,"EPHEMERIS_TYPE":0,"CLASSIFICATION_TYPE":"SP/gJU6e}q","NORAD_CAT_ID":4217380714,"ELEMENT_SET_NO":269956235,"REV_AT_EPOCH":78509.44,"BSTAR":8792.39,"MEAN_MOTION_DOT":253.12,"MEAN_MOTION_DDOT":4588.32,"COV_REF_FRAME":0,"CX_X":63995.42,"CY_X":69784.09,"CY_Y":58173.63,"CZ_X":67076.65,"CZ_Y":88271.68,"CZ_Z":99386.93,"CX_DOT_X":50041.85,"CX_DOT_Y":15162.6,"CX_DOT_Z":70341.85,"CX_DOT_X_DOT":62543.3,"CY_DOT_X":18804.05,"CY_DOT_Y":63423.5,"CY_DOT_Z":97922.88,"CY_DOT_X_DOT":38801.1,"CY_DOT_Y_DOT":15395.74,"CZ_DOT_X":19452.97,"CZ_DOT_Y":57813.3,"CZ_DOT_Z":19715.47,"CZ_DOT_X_DOT":24927.01,"CZ_DOT_Y_DOT":17335.28,"CZ_DOT_Z_DOT":59985.69,"USER_DEFINED_BIP_0044_TYPE":3951543647,"USER_DEFINED_OBJECT_DESIGNATOR":">cfF?$UpXp","USER_DEFINED_EARTH_MODEL":"*\\MQA#ih=3","USER_DEFINED_EPOCH_TIMESTAMP":16749.35,"USER_DEFINED_MICROSECONDS":6741.01},{"CCSDS_OMM_VERS":70544.59,"CREATION_DATE":"2071-11-27T13:14:15.505Z","ORIGINATOR":"Zboncak - Hagenes","OBJECT_NAME":"s\"5R.n3Sp/","OBJECT_ID":"*(%0rS.9J[","CENTER_NAME":"-Z);D8u?24","REF_FRAME":1,"REF_FRAME_EPOCH":"2050-03-31T05:10:02.125Z","TIME_SYSTEM":11,"MEAN_ELEMENT_THEORY":1,"COMMENT":"vYCjc3ViP^","EPOCH":"2002-10-09T03:31:12.532Z","SEMI_MAJOR_AXIS":84931.34,"MEAN_MOTION":93598.38,"ECCENTRICITY":48060.57,"INCLINATION":29130.34,"RA_OF_ASC_NODE":75251,"ARG_OF_PERICENTER":50687.3,"MEAN_ANOMALY":8022.01,"GM":14117.72,"MASS":60053.09,"SOLAR_RAD_AREA":84775.05,"SOLAR_RAD_COEFF":30338.3,"DRAG_AREA":1392.71,"DRAG_COEFF":39143.13,"EPHEMERIS_TYPE":4,"CLASSIFICATION_TYPE":"v\"I{nq84>C","NORAD_CAT_ID":1470498803,"ELEMENT_SET_NO":3711163812,"REV_AT_EPOCH":21371.66,"BSTAR":41989.64,"MEAN_MOTION_DOT":38388.88,"MEAN_MOTION_DDOT":77856.84,"COV_REF_FRAME":1,"CX_X":31144.11,"CY_X":55934.74,"CY_Y":93998.26,"CZ_X":44863.24,"CZ_Y":77654.24,"CZ_Z":62543,"CX_DOT_X":85900.65,"CX_DOT_Y":67073.62,"CX_DOT_Z":81707.17,"CX_DOT_X_DOT":64944.54,"CY_DOT_X":58703.24,"CY_DOT_Y":49676.53,"CY_DOT_Z":46198.1,"CY_DOT_X_DOT":82404.27,"CY_DOT_Y_DOT":28886.86,"CZ_DOT_X":86563.32,"CZ_DOT_Y":86994.15,"CZ_DOT_Z":21041.43,"CZ_DOT_X_DOT":5941.2,"CZ_DOT_Y_DOT":7619.14,"CZ_DOT_Z_DOT":48418.59,"USER_DEFINED_BIP_0044_TYPE":2935809335,"USER_DEFINED_OBJECT_DESIGNATOR":"VWV|U:$$4}","USER_DEFINED_EARTH_MODEL":"=%)9dYl3yA","USER_DEFINED_EPOCH_TIMESTAMP":84335.84,"USER_DEFINED_MICROSECONDS":77000.75},{"CCSDS_OMM_VERS":43813.19,"CREATION_DATE":"2089-03-14T01:29:17.204Z","ORIGINATOR":"Keeling LLC","OBJECT_NAME":"dBrUnE&_5(","OBJECT_ID":"o58jv}vE\"@","CENTER_NAME":"ES>y(3lbJz","REF_FRAME":0,"REF_FRAME_EPOCH":"2061-10-07T16:21:37.343Z","TIME_SYSTEM":5,"MEAN_ELEMENT_THEORY":1,"COMMENT":"jj|l7xYRrh","EPOCH":"2003-10-15T17:48:32.930Z","SEMI_MAJOR_AXIS":96273.61,"MEAN_MOTION":87885.17,"ECCENTRICITY":24403.8,"INCLINATION":84947.47,"RA_OF_ASC_NODE":28451.26,"ARG_OF_PERICENTER":45804.82,"MEAN_ANOMALY":80331.46,"GM":44507.14,"MASS":86726.27,"SOLAR_RAD_AREA":32425.15,"SOLAR_RAD_COEFF":79467.66,"DRAG_AREA":32383.62,"DRAG_COEFF":40493.27,"EPHEMERIS_TYPE":0,"CLASSIFICATION_TYPE":"(0e\\cfPirV","NORAD_CAT_ID":259516549,"ELEMENT_SET_NO":1169322820,"REV_AT_EPOCH":12000.97,"BSTAR":94948.44,"MEAN_MOTION_DOT":13105.66,"MEAN_MOTION_DDOT":4660.11,"COV_REF_FRAME":1,"CX_X":24388.16,"CY_X":48030.29,"CY_Y":68014.29,"CZ_X":7481.22,"CZ_Y":95298.86,"CZ_Z":54436.21,"CX_DOT_X":56436.81,"CX_DOT_Y":35746.54,"CX_DOT_Z":75641.71,"CX_DOT_X_DOT":33378.2,"CY_DOT_X":4504.74,"CY_DOT_Y":86738.47,"CY_DOT_Z":4109.42,"CY_DOT_X_DOT":89795.18,"CY_DOT_Y_DOT":58456.2,"CZ_DOT_X":73694.74,"CZ_DOT_Y":35623.37,"CZ_DOT_Z":34360.59,"CZ_DOT_X_DOT":15589.64,"CZ_DOT_Y_DOT":94456.06,"CZ_DOT_Z_DOT":55849.73,"USER_DEFINED_BIP_0044_TYPE":4141260914,"USER_DEFINED_OBJECT_DESIGNATOR":"U?[PP([LFw","USER_DEFINED_EARTH_MODEL":"v|Y(y/W*ja","USER_DEFINED_EPOCH_TIMESTAMP":40738.96,"USER_DEFINED_MICROSECONDS":11129.01}]}